QIANFAN-1               
1 60379U 24140A   25237.59533682  .00000105  00000+0  14317-3 0  9990
2 60379  88.9825 310.5768 0018523 164.1341 196.0394 13.50960455 52610
QIANFAN-2               
1 60380U 24140B   25237.54993619  .00000096  00000+0  13029-3 0  9995
2 60380  88.9811 310.4359 0014607 137.3872 222.8415 13.50966930 52663
QIANFAN-3               
1 60381U 24140C   25237.55819360  .00000107  00000+0  14726-3 0  9995
2 60381  88.9804 310.5757 0015439 148.9798 211.2268 13.50960914 52572
QIANFAN-4               
1 60382U 24140D   25237.60768199  .00000109  00000+0  15062-3 0  9991
2 60382  88.9828 310.4410 0014790 139.6552 220.5700 13.50960543 52705
QIANFAN-5               
1 60383U 24140E   25237.58298012  .00000099  00000+0  13503-3 0  9997
2 60383  88.9804 310.5989 0016347 159.6561 200.5245 13.50963755 52568
QIANFAN-6               
1 60384U 24140F   25237.60351664  .00000109  00000+0  14970-3 0  9995
2 60384  88.9830 310.3140 0014755 144.9200 215.2926 13.50960097 52760
QIANFAN-7               
1 60385U 24140G   25237.60922176  .00000453  00000+0  17810-3 0  9996
2 60385  88.9829 306.5456 0016406  48.0097 312.2492 14.27522120 54820
QIANFAN-8               
1 60386U 24140H   25237.61177879  .00000106  00000+0  14601-3 0  9990
2 60386  88.9832 310.5487 0018131 148.1049 212.1204 13.50964026 52614
